[{"OBJECT_NAME":"FENGYUN 1C DEB","OBJECT_ID":"1999-025BFC","EPOCH":"2026-03-04T03:22:29.060832","MEAN_MOTION":14.78422124,"ECCENTRICITY":0.00895674,"INCLINATION":99.5744,"RA_OF_ASC_NODE":32.5065,"ARG_OF_PERICENTER":215.442,"MEAN_ANOMALY":144.0814,"EPHEMERIS_TYPE":0,"CLASSIFICATION_TYPE":"U","NORAD_CAT_ID":31058,"ELEMENT_SET_NO":999,"REV_AT_EPOCH":695,"BSTAR":0.0014701595,"MEAN_MOTION_DOT":0.000114,"MEAN_MOTION_DDOT":0},{"OBJECT_NAME":"FENGYUN 1C DEB","OBJECT_ID":"1999-025BFG","EPOCH":"2026-03-11T23:15:41.143680","MEAN_MOTION":13.75744798,"ECCENTRICITY":0.017243,"INCLINATION":99.0038,"RA_OF_ASC_NODE":253.4636,"ARG_OF_PERICENTER":81.0769,"MEAN_ANOMALY":72.405,"EPHEMERIS_TYPE":0,"CLASSIFICATION_TYPE":"U","NORAD_CAT_ID":31062,"ELEMENT_SET_NO":999,"REV_AT_EPOCH":95460,"BSTAR":0.00023539,"MEAN_MOTION_DOT":2.14e-6,"MEAN_MOTION_DDOT":0},{"OBJECT_NAME":"FENGYUN 1C DEB","OBJECT_ID":"1999-025BFJ","EPOCH":"2026-03-14T10:33:12.430944","MEAN_MOTION":14.22313657,"ECCENTRICITY":0.02420655,"INCLINATION":98.5856,"RA_OF_ASC_NODE":58.7614,"ARG_OF_PERICENTER":94.8452,"MEAN_ANOMALY":54.4714,"EPHEMERIS_TYPE":0,"CLASSIFICATION_TYPE":"U","NORAD_CAT_ID":31064,"ELEMENT_SET_NO":999,"REV_AT_EPOCH":98558,"BSTAR":0.00029431497,"MEAN_MOTION_DOT":8.37e-6,"MEAN_MOTION_DDOT":0},{"OBJECT_NAME":"FENGYUN 1C DEB","OBJECT_ID":"1999-025BFK","EPOCH":"2026-03-01T00:02:13.996032","MEAN_MOTION":14.28564642,"ECCENTRICITY":0.0035959,"INCLINATION":98.4614,"RA_OF_ASC_NODE":81.7444,"ARG_OF_PERICENTER":158.0525,"MEAN_ANOMALY":202.2206,"EPHEMERIS_TYPE":0,"CLASSIFICATION_TYPE":"U","NORAD_CAT_ID":31065,"ELEMENT_SET_NO":999,"REV_AT_EPOCH":65695,"BSTAR":0.00082602,"MEAN_MOTION_DOT":2.044e-5,"MEAN_MOTION_DDOT":0},{"OBJECT_NAME":"FENGYUN 1C DEB","OBJECT_ID":"1999-025BFN","EPOCH":"2026-02-24T17:31:53.078880","MEAN_MOTION":14.09280002,"ECCENTRICITY":0.01637124,"INCLINATION":98.6402,"RA_OF_ASC_NODE":39.8629,"ARG_OF_PERICENTER":268.4698,"MEAN_ANOMALY":89.7715,"EPHEMERIS_TYPE":0,"CLASSIFICATION_TYPE":"U","NORAD_CAT_ID":31068,"ELEMENT_SET_NO":999,"REV_AT_EPOCH":97397,"BSTAR":0.00025179459,"MEAN_MOTION_DOT":4.53e-6,"MEAN_MOTION_DDOT":0},{"OBJECT_NAME":"FENGYUN 1C DEB","OBJECT_ID":"1999-025BFP","EPOCH":"2026-03-14T06:16:31.241280","MEAN_MOTION":14.57947168,"ECCENTRICITY":0.0103194,"INCLINATION":99.1085,"RA_OF_ASC_NODE":247.0784,"ARG_OF_PERICENTER":160.1717,"MEAN_ANOMALY":200.3537,"EPHEMERIS_TYPE":0,"CLASSIFICATION_TYPE":"U","NORAD_CAT_ID":31069,"ELEMENT_SET_NO":999,"REV_AT_EPOCH":15,"BSTAR":0.001059999,"MEAN_MOTION_DOT":5.178e-5,"MEAN_MOTION_DDOT":0},{"OBJECT_NAME":"FENGYUN 1C DEB","OBJECT_ID":"1999-025BFR","EPOCH":"2026-03-13T11:36:29.932992","MEAN_MOTION":14.53599498,"ECCENTRICITY":0.00549958,"INCLINATION":99.0323,"RA_OF_ASC_NODE":162.2471,"ARG_OF_PERICENTER":9.7214,"MEAN_ANOMALY":350.5031,"EPHEMERIS_TYPE":0,"CLASSIFICATION_TYPE":"U","NORAD_CAT_ID":31071,"ELEMENT_SET_NO":999,"REV_AT_EPOCH":66812,"BSTAR":0.00097689171,"MEAN_MOTION_DOT":4.112e-5,"MEAN_MOTION_DDOT":0},{"OBJECT_NAME":"FENGYUN 1C DEB","OBJECT_ID":"1999-025BFS","EPOCH":"2026-03-14T11:32:50.672256","MEAN_MOTION":14.25943783,"ECCENTRICITY":0.02084537,"INCLINATION":99.3319,"RA_OF_ASC_NODE":89.8147,"ARG_OF_PERICENTER":195.4965,"MEAN_ANOMALY":163.9767,"EPHEMERIS_TYPE":0,"CLASSIFICATION_TYPE":"U","NORAD_CAT_ID":31072,"ELEMENT_SET_NO":999,"REV_AT_EPOCH":97950,"BSTAR":0.0005100563,"MEAN_MOTION_DOT":1.473e-5,"MEAN_MOTION_DDOT":0},{"OBJECT_NAME":"FENGYUN 1C DEB","OBJECT_ID":"1999-025BFT","EPOCH":"2026-03-14T09:11:52.045728","MEAN_MOTION":14.25366221,"ECCENTRICITY":0.00443083,"INCLINATION":99.2182,"RA_OF_ASC_NODE":292.6887,"ARG_OF_PERICENTER":23.2582,"MEAN_ANOMALY":337.0588,"EPHEMERIS_TYPE":0,"CLASSIFICATION_TYPE":"U","NORAD_CAT_ID":31073,"ELEMENT_SET_NO":999,"REV_AT_EPOCH":98388,"BSTAR":0.0011466156,"MEAN_MOTION_DOT":2.683e-5,"MEAN_MOTION_DDOT":0},{"OBJECT_NAME":"FENGYUN 1C DEB","OBJECT_ID":"1999-025BFU","EPOCH":"2026-03-14T00:18:07.052832","MEAN_MOTION":14.15048858,"ECCENTRICITY":0.0088419,"INCLINATION":98.9589,"RA_OF_ASC_NODE":353.331,"ARG_OF_PERICENTER":5.3648,"MEAN_ANOMALY":354.8452,"EPHEMERIS_TYPE":0,"CLASSIFICATION_TYPE":"U","NORAD_CAT_ID":31074,"ELEMENT_SET_NO":999,"REV_AT_EPOCH":96870,"BSTAR":0.0020413848,"MEAN_MOTION_DOT":4.063e-5,"MEAN_MOTION_DDOT":0},{"OBJECT_NAME":"FENGYUN 1C DEB","OBJECT_ID":"1999-025BFY","EPOCH":"2026-03-13T09:42:59.179104","MEAN_MOTION":14.2230838,"ECCENTRICITY":0.01153586,"INCLINATION":98.8521,"RA_OF_ASC_NODE":138.3021,"ARG_OF_PERICENTER":247.6488,"MEAN_ANOMALY":171.5746,"EPHEMERIS_TYPE":0,"CLASSIFICATION_TYPE":"U","NORAD_CAT_ID":31078,"ELEMENT_SET_NO":999,"REV_AT_EPOCH":98181,"BSTAR":0.00048634282,"MEAN_MOTION_DOT":1.111e-5,"MEAN_MOTION_DDOT":0},{"OBJECT_NAME":"FENGYUN 1C DEB","OBJECT_ID":"1999-025BGB","EPOCH":"2026-03-14T07:43:45.132096","MEAN_MOTION":14.06319872,"ECCENTRICITY":0.0047655,"INCLINATION":98.7664,"RA_OF_ASC_NODE":91.8893,"ARG_OF_PERICENTER":335.4792,"MEAN_ANOMALY":39.853,"EPHEMERIS_TYPE":0,"CLASSIFICATION_TYPE":"U","NORAD_CAT_ID":31081,"ELEMENT_SET_NO":999,"REV_AT_EPOCH":97748,"BSTAR":0.0001065051,"MEAN_MOTION_DOT":1.35e-6,"MEAN_MOTION_DDOT":0},{"OBJECT_NAME":"FENGYUN 1C DEB","OBJECT_ID":"1999-025BGD","EPOCH":"2026-03-13T20:00:55.691424","MEAN_MOTION":14.65101974,"ECCENTRICITY":0.00287669,"INCLINATION":98.6454,"RA_OF_ASC_NODE":199.7004,"ARG_OF_PERICENTER":28.099,"MEAN_ANOMALY":123.0267,"EPHEMERIS_TYPE":0,"CLASSIFICATION_TYPE":"U","NORAD_CAT_ID":31083,"ELEMENT_SET_NO":999,"REV_AT_EPOCH":99042,"BSTAR":0.0026032616,"MEAN_MOTION_DOT":0.00014038,"MEAN_MOTION_DDOT":0},{"OBJECT_NAME":"FENGYUN 1C DEB","OBJECT_ID":"1999-025BGF","EPOCH":"2026-03-14T07:41:15.620352","MEAN_MOTION":14.30378053,"ECCENTRICITY":0.00877691,"INCLINATION":98.9818,"RA_OF_ASC_NODE":282.0902,"ARG_OF_PERICENTER":111.0792,"MEAN_ANOMALY":65.0393,"EPHEMERIS_TYPE":0,"CLASSIFICATION_TYPE":"U","NORAD_CAT_ID":31085,"ELEMENT_SET_NO":999,"REV_AT_EPOCH":99025,"BSTAR":0.0001108746,"MEAN_MOTION_DOT":2.54e-6,"MEAN_MOTION_DDOT":0},{"OBJECT_NAME":"FENGYUN 1C DEB","OBJECT_ID":"1999-025BGH","EPOCH":"2026-03-14T13:46:55.105824","MEAN_MOTION":14.61197025,"ECCENTRICITY":0.01705865,"INCLINATION":98.0961,"RA_OF_ASC_NODE":97.0243,"ARG_OF_PERICENTER":3.6338,"MEAN_ANOMALY":126.1278,"EPHEMERIS_TYPE":0,"CLASSIFICATION_TYPE":"U","NORAD_CAT_ID":31087,"ELEMENT_SET_NO":999,"REV_AT_EPOCH":111,"BSTAR":0.0010660631,"MEAN_MOTION_DOT":6.408e-5,"MEAN_MOTION_DDOT":0},{"OBJECT_NAME":"FENGYUN 1C DEB","OBJECT_ID":"1999-025BGJ","EPOCH":"2026-03-11T03:25:45.479136","MEAN_MOTION":14.29489493,"ECCENTRICITY":0.00307403,"INCLINATION":99.3998,"RA_OF_ASC_NODE":142.2529,"ARG_OF_PERICENTER":165.9362,"MEAN_ANOMALY":226.8403,"EPHEMERIS_TYPE":0,"CLASSIFICATION_TYPE":"U","NORAD_CAT_ID":31088,"ELEMENT_SET_NO":999,"REV_AT_EPOCH":97812,"BSTAR":0.0015946725,"MEAN_MOTION_DOT":4.045e-5,"MEAN_MOTION_DDOT":0}]
