FENGYUN 1C DEB          
1 31058U 99025BFC 26063.14061413  .00011400  00000+0  14702-2 0  9990
2 31058  99.5744  32.5065 0089567 215.4420 144.0814 14.78422124  6958
FENGYUN 1C DEB          
1 31062U 99025BFG 26070.96922620  .00000214  00000+0  23539-3 0  9999
2 31062  99.0038 253.4636 0172430  81.0769  72.4050 13.75744798954607
FENGYUN 1C DEB          
1 31064U 99025BFJ 26073.43972721  .00000837  00000+0  29431-3 0  9991
2 31064  98.5856  58.7614 0242065  94.8452  54.4714 14.22313657985583
FENGYUN 1C DEB          
1 31065U 99025BFK 26060.00155088  .00002044  00000+0  82602-3 0  9991
2 31065  98.4614  81.7444 0035959 158.0525 202.2206 14.28564642656951
FENGYUN 1C DEB          
1 31068U 99025BFN 26055.73047545  .00000453  00000+0  25179-3 0  9994
2 31068  98.6402  39.8629 0163712 268.4698  89.7715 14.09280002973977
FENGYUN 1C DEB          
1 31069U 99025BFP 26073.26147270  .00005178  00000+0  10600-2 0  9990
2 31069  99.1085 247.0784 0103194 160.1717 200.3537 14.57947168   154
FENGYUN 1C DEB          
1 31071U 99025BFR 26072.48367978  .00004112  00000+0  97689-3 0  9995
2 31071  99.0323 162.2471 0054995   9.7214 350.5031 14.53599498668125
FENGYUN 1C DEB          
1 31072U 99025BFS 26073.48114204  .00001473  00000+0  51006-3 0  9999
2 31072  99.3319  89.8147 0208453 195.4965 163.9767 14.25943783979502
FENGYUN 1C DEB          
1 31073U 99025BFT 26073.38324127  .00002683  00000+0  11466-2 0  9995
2 31073  99.2182 292.6887 0044308  23.2582 337.0588 14.25366221983882
FENGYUN 1C DEB          
1 31074U 99025BFU 26073.01258163  .00004063  00000+0  20414-2 0  9999
2 31074  98.9589 353.3310 0088419   5.3648 354.8452 14.15048858968704
FENGYUN 1C DEB          
1 31078U 99025BFY 26072.40485161  .00001111  00000+0  48634-3 0  9991
2 31078  98.8521 138.3021 0115358 247.6488 171.5746 14.22308380981813
FENGYUN 1C DEB          
1 31081U 99025BGB 26073.32205014  .00000135  00000+0  10651-3 0  9997
2 31081  98.7664  91.8893 0047655 335.4792  39.8530 14.06319872977487
FENGYUN 1C DEB          
1 31083U 99025BGD 26072.83397791  .00014038  00000+0  26033-2 0  9995
2 31083  98.6454 199.7004 0028766  28.0990 123.0267 14.65101974990423
FENGYUN 1C DEB          
1 31085U 99025BGF 26073.32031968  .00000254  00000+0  11087-3 0  9992
2 31085  98.9818 282.0902 0087769 111.0792  65.0393 14.30378053990258
FENGYUN 1C DEB          
1 31087U 99025BGH 26073.57424891  .00006408  00000+0  10661-2 0  9995
2 31087  98.0961  97.0243 0170586   3.6338 126.1278 14.61197025  1115
FENGYUN 1C DEB          
1 31088U 99025BGJ 26070.14288749  .00004045  00000+0  15947-2 0  9993
2 31088  99.3998 142.2529 0030740 165.9362 226.8403 14.29489493978125
